{
    "links": {
        "self": "http://www.neowsapp.com/rest/v1/neo/3584575?api_key=iIulBulltgU6a56xZRHN4H3l9WmuAYTsLGpBGhQ2"
    },
    "id": "3584575",
    "neo_reference_id": "3584575",
    "name": "(2011 UW255)",
    "designation": "2011 UW255",
    "nasa_jpl_url": "http://ssd.jpl.nasa.gov/sbdb.cgi?sstr=3584575",
    "absolute_magnitude_h": 23.7,
    "estimated_diameter": {
        "kilometers": {
            "estimated_diameter_min": 0.0483676488,
            "estimated_diameter_max": 0.1081533507
        },
        "meters": {
            "estimated_diameter_min": 48.3676488219,
            "estimated_diameter_max": 108.1533506775
        },
        "miles": {
            "estimated_diameter_min": 0.0300542543,
            "estimated_diameter_max": 0.0672033557
        },
        "feet": {
            "estimated_diameter_min": 158.6865169607,
            "estimated_diameter_max": 354.8338390368
        }
    },
    "is_potentially_hazardous_asteroid": false,
    "close_approach_data": [
        {
            "close_approach_date": "2011-10-21",
            "close_approach_date_full": "2011-Oct-21 14:06",
            "epoch_date_close_approach": 1319205960000,
            "relative_velocity": {
                "kilometers_per_second": "16.7171873974",
                "kilometers_per_hour": "60181.8746306987",
                "miles_per_hour": "37394.6764892805"
            },
            "miss_distance": {
                "astronomical": "0.0532303378",
                "lunar": "20.7066014042",
                "kilometers": "7963145.154260486",
                "miles": "4948068.9538512668"
            },
            "orbiting_body": "Earth"
        },
        {
            "close_approach_date": "2109-04-14",
            "close_approach_date_full": "2109-Apr-14 13:46",
            "epoch_date_close_approach": 4395390360000,
            "relative_velocity": {
                "kilometers_per_second": "22.4682930274",
                "kilometers_per_hour": "80885.8548985169",
                "miles_per_hour": "50259.3246729146"
            },
            "miss_distance": {
                "astronomical": "0.2384993511",
                "lunar": "92.7762475779",
                "kilometers": "35678994.920942157",
                "miles": "22169899.4119774866"
            },
            "orbiting_body": "Earth"
        }
    ],
    "orbital_data": {
        "orbit_id": "6",
        "orbit_determination_date": "2017-04-06 08:52:10",
        "first_observation_date": "2011-10-30",
        "last_observation_date": "2011-11-02",
        "data_arc_in_days": 3,
        "observations_used": 32,
        "orbit_uncertainty": "9",
        "minimum_orbit_intersection": ".00712983",
        "jupiter_tisserand_invariant": "4.644",
        "epoch_osculation": "2455865.5",
        "eccentricity": ".493199207424453",
        "semi_major_axis": "1.383989444839847",
        "inclination": "9.740622611585877",
        "ascending_node_longitude": "217.321528347101",
        "orbital_period": "594.6995279490137",
        "perihelion_distance": ".701406947561026",
        "perihelion_argument": "82.81401437971705",
        "aphelion_distance": "2.066571942118669",
        "perihelion_time": "2455801.903202552790",
        "mean_anomaly": "38.49817597796795",
        "mean_motion": ".6053477144021954",
        "equinox": "J2000",
        "orbit_class": {
            "orbit_class_type": "APO",
            "orbit_class_description": "Near-Earth asteroid orbits which cross the Earth’s orbit similar to that of 1862 Apollo",
            "orbit_class_range": "a (semi-major axis) > 1.0 AU; q (perihelion) < 1.017 AU"
        }
    },
    "is_sentry_object": false
}